PRAETORIAN SDA_617      
1 65580U 25203R   26074.32919208  .00000091  00000+0  72292-4 0  9994
2 65580  81.2998  97.6775 0008763  87.7049 272.5111 13.83192272 25715
PRAETORIAN SDA_618      
1 65581U 25203S   26074.33634933  .00000162  00000+0  13364-3 0  9998
2 65581  81.2986  97.4962 0011006  88.3898 271.8520 13.84760977 25723
PRAETORIAN SDA_619      
1 65582U 25203T   26074.31562118  .00000187  00000+0  15776-3 0  9998
2 65582  81.3003  97.6677 0009322  87.1388 273.0835 13.83931314 26345
PRAETORIAN SDA_620      
1 65583U 25203U   26074.18102976  .00000233  00000+0  19964-3 0  9991
2 65583  81.2992  97.7886 0008746  86.9875 273.2282 13.83705072 25697
PRAETORIAN SDA_621      
1 65584U 25203V   26074.30938304  .00000090  00000+0  70646-4 0  9994
2 65584  81.2980  97.6185 0008662  82.6768 277.5372 13.83788220 25713
PRAETORIAN SDA_601      
1 65585U 25203W   26074.32232589  .00000131  00000+0  10831-3 0  9994
2 65585  81.3000  97.8237 0006610  96.0460 264.1449 13.83485011 25705
