[{"OBJECT_NAME":"PRAETORIAN SDA_617","OBJECT_ID":"2025-203R","EPOCH":"2026-03-15T07:54:02.195712","MEAN_MOTION":13.83192272,"ECCENTRICITY":0.00087633,"INCLINATION":81.2998,"RA_OF_ASC_NODE":97.6775,"ARG_OF_PERICENTER":87.7049,"MEAN_ANOMALY":272.5111,"EPHEMERIS_TYPE":0,"CLASSIFICATION_TYPE":"U","NORAD_CAT_ID":65580,"ELEMENT_SET_NO":999,"REV_AT_EPOCH":2571,"BSTAR":7.2291616e-5,"MEAN_MOTION_DOT":9.1e-7,"MEAN_MOTION_DDOT":0},{"OBJECT_NAME":"PRAETORIAN SDA_618","OBJECT_ID":"2025-203S","EPOCH":"2026-03-15T08:04:20.582112","MEAN_MOTION":13.84760977,"ECCENTRICITY":0.00110069,"INCLINATION":81.2986,"RA_OF_ASC_NODE":97.4962,"ARG_OF_PERICENTER":88.3898,"MEAN_ANOMALY":271.852,"EPHEMERIS_TYPE":0,"CLASSIFICATION_TYPE":"U","NORAD_CAT_ID":65581,"ELEMENT_SET_NO":999,"REV_AT_EPOCH":2572,"BSTAR":0.00013364421,"MEAN_MOTION_DOT":1.62e-6,"MEAN_MOTION_DDOT":0},{"OBJECT_NAME":"PRAETORIAN SDA_619","OBJECT_ID":"2025-203T","EPOCH":"2026-03-15T07:34:29.669952","MEAN_MOTION":13.83931314,"ECCENTRICITY":0.00093222,"INCLINATION":81.3003,"RA_OF_ASC_NODE":97.6677,"ARG_OF_PERICENTER":87.1388,"MEAN_ANOMALY":273.0835,"EPHEMERIS_TYPE":0,"CLASSIFICATION_TYPE":"U","NORAD_CAT_ID":65582,"ELEMENT_SET_NO":999,"REV_AT_EPOCH":2634,"BSTAR":0.0001577609,"MEAN_MOTION_DOT":1.87e-6,"MEAN_MOTION_DDOT":0},{"OBJECT_NAME":"PRAETORIAN SDA_620","OBJECT_ID":"2025-203U","EPOCH":"2026-03-15T04:20:40.971264","MEAN_MOTION":13.83705072,"ECCENTRICITY":0.00087462,"INCLINATION":81.2992,"RA_OF_ASC_NODE":97.7886,"ARG_OF_PERICENTER":86.9875,"MEAN_ANOMALY":273.2282,"EPHEMERIS_TYPE":0,"CLASSIFICATION_TYPE":"U","NORAD_CAT_ID":65583,"ELEMENT_SET_NO":999,"REV_AT_EPOCH":2569,"BSTAR":0.0001996439,"MEAN_MOTION_DOT":2.33e-6,"MEAN_MOTION_DDOT":0},{"OBJECT_NAME":"PRAETORIAN SDA_621","OBJECT_ID":"2025-203V","EPOCH":"2026-03-15T07:25:30.694656","MEAN_MOTION":13.8378822,"ECCENTRICITY":0.0008662,"INCLINATION":81.298,"RA_OF_ASC_NODE":97.6185,"ARG_OF_PERICENTER":82.6768,"MEAN_ANOMALY":277.5372,"EPHEMERIS_TYPE":0,"CLASSIFICATION_TYPE":"U","NORAD_CAT_ID":65584,"ELEMENT_SET_NO":999,"REV_AT_EPOCH":2571,"BSTAR":7.0645783e-5,"MEAN_MOTION_DOT":9.0e-7,"MEAN_MOTION_DDOT":0},{"OBJECT_NAME":"PRAETORIAN SDA_601","OBJECT_ID":"2025-203W","EPOCH":"2026-03-15T07:44:08.956896","MEAN_MOTION":13.83485011,"ECCENTRICITY":0.00066108,"INCLINATION":81.3,"RA_OF_ASC_NODE":97.8237,"ARG_OF_PERICENTER":96.046,"MEAN_ANOMALY":264.1449,"EPHEMERIS_TYPE":0,"CLASSIFICATION_TYPE":"U","NORAD_CAT_ID":65585,"ELEMENT_SET_NO":999,"REV_AT_EPOCH":2570,"BSTAR":0.00010831377,"MEAN_MOTION_DOT":1.31e-6,"MEAN_MOTION_DDOT":0}]
